[{"OBJECT_NAME":"STARLINK-31260","OBJECT_ID":"2024-020F","EPOCH":"2026-03-09T21:22:23.717856","MEAN_MOTION":15.30200171,"ECCENTRICITY":1.897e-5,"INCLINATION":53.1625,"RA_OF_ASC_NODE":321.3594,"ARG_OF_PERICENTER":190.3877,"MEAN_ANOMALY":169.712,"EPHEMERIS_TYPE":0,"CLASSIFICATION_TYPE":"U","NORAD_CAT_ID":58881,"ELEMENT_SET_NO":999,"REV_AT_EPOCH":11810,"BSTAR":0.0001446134,"MEAN_MOTION_DOT":3.927e-5,"MEAN_MOTION_DDOT":0},{"OBJECT_NAME":"BANDWAGON-2 OBJECT D","OBJECT_ID":"2024-247D","EPOCH":"2026-03-09T12:32:33.670752","MEAN_MOTION":15.29076102,"ECCENTRICITY":0.00034883,"INCLINATION":44.9954,"RA_OF_ASC_NODE":115.671,"ARG_OF_PERICENTER":351.1453,"MEAN_ANOMALY":8.9368,"EPHEMERIS_TYPE":0,"CLASSIFICATION_TYPE":"U","NORAD_CAT_ID":62380,"ELEMENT_SET_NO":999,"REV_AT_EPOCH":6773,"BSTAR":0.00040119131,"MEAN_MOTION_DOT":0.00011259,"MEAN_MOTION_DDOT":0}]
